0 TITAN 3C TRANSTAGE DEB
1 28837U 65108CP  13281.62844284 -.00000083  00000-0  00000+0 0  2513
2 28837 025.8524 073.2742 6510450 290.3291 035.0987 02.63332862 86481
0 TITAN 3C TRANSTAGE DEB
1 28837U 65108CP  13292.20199291 -.00000083  00000-0  00000+0 0  2521
2 28837 025.8660 069.5526 6510844 296.6145 338.6784 02.63334026 86766
